OBJECT A                
1 44879U 19093A   20143.19069925  .00000080  00000-0  17063-4 0  9994
2 44879  97.9584 219.3993 0016405 120.6469 239.6374 14.81396918 22813
OBJECT B                
1 44880U 19093B   20143.05507608  .00000107  00000-0  20466-4 0  9997
2 44880  97.9587 219.2697 0016580 121.6267 238.6570 14.81410105 22787
OBJECT C                
1 44881U 19093C   20143.05147589  .00000233  00000-0  36538-4 0  9993
2 44881  97.9585 219.2812 0015787 120.4077 239.8682 14.81432338 22788
OBJECT D                
1 44882U 19093D   20143.04755958  .00000158  00000-0  26957-4 0  9998
2 44882  97.9623 219.3462 0017648 122.8991 237.3925 14.81491716 22781
CBERS 4A                
1 44883U 19093E   20143.04148651  .00000045  00000-0  12528-4 0  9999
2 44883  97.9592 219.3001 0001335  88.3416 271.7946 14.81517960 22796
OBJECT F                
1 44884U 19093F   20143.01404775  .00000162  00000-0  27197-4 0  9997
2 44884  97.9569 219.2840 0015047 127.8856 232.3717 14.81812145 22784
FLORIPASAT-1            
1 44885U 19093G   20143.06036597  .00000188  00000-0  30349-4 0  9997
2 44885  97.9579 219.4094 0015874 130.6098 229.6500 14.82021257 22794
OBJECT H                
1 44886U 19093H   20143.02311945  .00000123  00000-0  22040-4 0  9995
2 44886  97.9594 219.4890 0016240 136.4885 223.7601 14.82367716 22792
OBJECT J                
1 44887U 19093J   20143.02378428  .00000082  00000-0  16973-4 0  9997
2 44887  97.9595 219.4813 0016179 135.7857 224.4637 14.82357979 22798
CZ-4B R/B               
1 44888U 19093K   20142.75990865  .00000903  00000-0  49287-4 0  9998
2 44888  97.8650 224.2673 0123199 216.8404 142.4314 15.11037253 23209
OBJECT L                
1 44889U 19093L   20143.05341569  .00000048  00000-0  13124-4 0  9995
2 44889  97.9552 219.0568 0016979 112.6248 247.6766 14.80773804 22700
OBJECT M                
1 44890U 19093M   20143.03116047  .00000187  00000-0  27588-4 0  9999
2 44890  97.9076 219.2800 0049764 142.8614 217.6034 14.85568067 22763
OBJECT N                
1 44891U 19093N   20143.16593875  .00000219  00000-0  31298-4 0  9991
2 44891  98.0156 221.6240 0023818 244.3070 115.5696 14.86214814 22798
